NORAD_CAT_ID,OBJECT_NAME,OBJECT_TYPE,EPOCH,MEAN_MOTION,ECCENTRICITY,INCLINATION,RA_OF_ASC_NODE,ARG_OF_PERICENTER,MEAN_ANOMALY,BSTAR,MEAN_MOTION_DOT,MEAN_MOTION_DDOT,TLE_LINE0,TLE_LINE1,TLE_LINE2,SEMIMAJOR_AXIS,PERIOD,APOGEE,PERIGEE,DECAYED
52878.0,STARLINK-4171,PAYLOAD,2024-03-25 22:41:11,15.08824165,0.0001801,53.2169,338.2423,75.8041,284.3151,0.0016583,0.00026191,0.0,0 STARLINK-4171,1 52878U 22062BA  24085.94527715  .00026191  00000-0  16583-2 0  9995,2 52878  53.2169 338.2423 0001801  75.8041 284.3151 15.08824165 98313,6917.929,95.439,541.04,538.548,0.0
52878.0,STARLINK-4171,PAYLOAD,2024-03-26 00:16:35,15.08840376,0.0001591,53.2166,337.9489,81.2163,278.9009,0.0031744,0.00050596,0.0,0 STARLINK-4171,1 52878U 22062BA  24086.01151745  .00050596  00000-0  31744-2 0  9992,2 52878  53.2166 337.9489 0001591  81.2163 278.9009 15.08840376 98818,6917.879,95.438,540.845,538.644,0.0
52878.0,STARLINK-4171,PAYLOAD,2024-03-26 09:48:53,15.08865825,0.0001634,53.2165,336.1634,81.205,278.9128,0.0035456,0.00056634,0.0,0 STARLINK-4171,1 52878U 22062BA  24086.40895767  .00056634  00000-0  35456-2 0  9997,2 52878  53.2165 336.1634 0001634  81.2050 278.9128 15.08865825 98877,6917.801,95.436,540.797,538.536,0.0
52878.0,STARLINK-4171,PAYLOAD,2024-03-26 20:56:35,15.08866745,0.0001495,53.2161,334.0821,116.745,243.3695,0.0018601,0.00029461,0.0,0 STARLINK-4171,1 52878U 22062BA  24086.87263251  .00029461  00000-0  18601-2 0  9996,2 52878  53.2161 334.0821 0001495 116.7450 243.3695 15.08866745 98946,6917.799,95.436,540.698,538.629,0.0
52878.0,STARLINK-4171,PAYLOAD,2024-03-26 22:31:58,15.08864428,0.0001782,53.2165,333.7865,83.7224,276.3971,0.0019192,0.00030409,0.0,0 STARLINK-4171,1 52878U 22062BA  24086.93887530  .00030409  00000-0  19192-2 0  9995,2 52878  53.2165 333.7865 0001782  83.7224 276.3971 15.08864428 98461,6917.806,95.436,540.903,538.438,0.0
52878.0,STARLINK-4171,PAYLOAD,2024-03-27 00:07:21,15.08866521,0.000167,53.2161,333.4875,85.2032,274.9151,0.0019643,0.00031135,0.0,0 STARLINK-4171,1 52878U 22062BA  24087.00511393  .00031135  00000-0  19643-2 0  9993,2 52878  53.2161 333.4875 0001670  85.2032 274.9151 15.08866521 98960,6917.799,95.436,540.82,538.509,0.0
52878.0,STARLINK-4171,PAYLOAD,2024-03-27 09:39:40,15.08878375,0.0001768,53.216,331.7036,81.0338,279.0854,0.0016067,0.00025402,0.0,0 STARLINK-4171,1 52878U 22062BA  24087.40254697  .00025402  00000-0  16067-2 0  9995,2 52878  53.2160 331.7036 0001768  81.0338 279.0854 15.08878375 99024,6917.763,95.435,540.851,538.405,0.0
52878.0,STARLINK-4171,PAYLOAD,2024-03-27 22:22:45,15.08844077,9.47e-05,53.2167,329.323,108.6421,251.4674,0.0012132,0.00019075,0.0,0 STARLINK-4171,1 52878U 22062BA  24087.93246553  .00019075  00000-0  12132-2 0  9993,2 52878  53.2167 329.3230 0000947 108.6421 251.4674 15.08844077 98617,6917.868,95.437,540.388,539.078,0.0
52878.0,STARLINK-4171,PAYLOAD,2024-03-28 09:30:26,15.08865702,0.0001331,53.2165,327.2402,98.0381,262.0762,0.0013865,0.00021863,0.0,0 STARLINK-4171,1 52878U 22062BA  24088.39614018  .00021863  00000-0  13865-2 0  9991,2 52878  53.2165 327.2402 0001331  98.0381 262.0762 15.08865702 98689,6917.802,95.436,540.588,538.746,0.0
52878.0,STARLINK-4171,PAYLOAD,2024-03-28 15:51:59,15.08865143,0.0003202,53.217,326.051,85.513,274.6228,0.0014577,0.00023005,0.0,0 STARLINK-4171,1 52878U 22062BA  24088.66110408  .00023005  00000-0  14577-2 0  9996,2 52878  53.2170 326.0510 0003202  85.5130 274.6228 15.08865143 99219,6917.804,95.436,541.884,537.453,0.0
52878.0,STARLINK-4171,PAYLOAD,2024-03-28 22:13:31,15.08846636,0.0001608,53.2171,324.8623,86.8319,273.2857,0.0011106,0.00017435,0.0,0 STARLINK-4171,1 52878U 22062BA  24088.92606156  .00017435  00000-0  11106-2 0  9990,2 52878  53.2171 324.8623 0001608  86.8319 273.2857 15.08846636 98760,6917.86,95.437,540.837,538.613,0.0
52878.0,STARLINK-4171,PAYLOAD,2024-03-29 22:04:18,15.0885887,0.0001768,53.2171,320.3996,91.526,268.5935,0.0012024,0.0001891,0.0,0 STARLINK-4171,1 52878U 22062BA  24089.91966070  .00018910  00000-0  12024-2 0  9993,2 52878  53.2171 320.3996 0001768  91.5260 268.5935 15.08858870 98913,6917.823,95.436,540.911,538.465,0.0
52878.0,STARLINK-4171,PAYLOAD,2024-03-30 01:15:04,15.08855592,0.000115,53.2162,319.807,85.2784,274.834,0.0008303,0.00012957,0.0,0 STARLINK-4171,1 52878U 22062BA  24090.05213965  .00012957  00000-0  83030-3 0  9999,2 52878  53.2162 319.8070 0001150  85.2784 274.8340 15.08855592 99420,6917.833,95.437,540.493,538.902,0.0
52878.0,STARLINK-4171,PAYLOAD,2024-03-30 21:55:06,15.08837224,0.0001003,53.218,315.9412,73.8052,286.305,0.00015992,2.258e-05,0.0,0 STARLINK-4171,1 52878U 22062BA  24090.91326511  .00002258  00000-0  15992-3 0  9991,2 52878  53.2180 315.9412 0001003  73.8052 286.3050 15.08837224 99557,6917.889,95.438,540.448,539.06,0.0
52878.0,STARLINK-4171,PAYLOAD,2024-03-31 07:27:24,15.08852084,0.0001369,53.2172,314.1591,85.9536,274.1612,0.00044648,6.827e-05,0.0,0 STARLINK-4171,1 52878U 22062BA  24091.31070176  .00006827  00000-0  44648-3 0  9995,2 52878  53.2172 314.1591 0001369  85.9536 274.1612 15.08852084 99610,6917.843,95.437,540.656,538.761,0.0
52878.0,STARLINK-4171,PAYLOAD,2024-03-31 20:10:29,15.08844171,0.0001431,53.2186,311.782,94.2365,265.879,6.2176e-05,7.02e-06,0.0,0 STARLINK-4171,1 52878U 22062BA  24091.84062155  .00000702  00000-0  62176-4 0  9994,2 52878  53.2186 311.7820 0001431  94.2365 265.8790 15.08844171 99696,6917.868,95.437,540.723,538.743,0.0
52878.0,STARLINK-4171,PAYLOAD,2024-03-31 21:45:52,15.08845048,0.0001418,53.2184,311.4854,96.3136,263.8017,7.8681e-05,9.65e-06,0.0,0 STARLINK-4171,1 52878U 22062BA  24091.90686126  .00000965  00000-0  78681-4 0  9990,2 52878  53.2184 311.4854 0001418  96.3136 263.8017 15.08845048 99214,6917.865,95.437,540.711,538.749,0.0
52878.0,STARLINK-4171,PAYLOAD,2024-04-01 07:18:11,15.08854696,0.0001351,53.2186,309.7022,98.99,261.1245,0.00024014,3.537e-05,0.0,0 STARLINK-4171,1 52878U 22062BA  24092.30429916  .00003537  00000-0  24014-3 0  9995,2 52878  53.2186 309.7022 0001351  98.9900 261.1245 15.08854696 99275,6917.835,95.437,540.635,538.766,0.0
52878.0,STARLINK-4171,PAYLOAD,2024-04-01 20:01:17,15.08832581,0.000132,53.2169,307.32,90.2307,269.8837,-8.5131e-05,-1.642e-05,0.0,0 STARLINK-4171,1 52878U 22062BA  24092.83422627 -.00001642  00000-0 -85131-4 0  9990,2 52878  53.2169 307.3200 0001320  90.2307 269.8837 15.08832581 99844,6917.903,95.438,540.681,538.855,0.0
52878.0,STARLINK-4171,PAYLOAD,2024-04-01 23:12:03,15.08837355,0.0001371,53.2171,306.7256,92.6908,267.4241,7.9282e-05,9.74e-06,0.0,0 STARLINK-4171,1 52878U 22062BA  24092.96670516  .00000974  00000-0  79282-4 0  9991,2 52878  53.2171 306.7256 0001371  92.6908 267.4241 15.08837355 99375,6917.888,95.438,540.702,538.805,0.0
52878.0,STARLINK-4171,PAYLOAD,2024-04-02 21:27:28,15.08827725,0.0001282,53.2162,302.5638,98.6932,261.4205,2.485e-05,1.08e-06,0.0,0 STARLINK-4171,1 52878U 22062BA  24093.89407655  .00000108  00000-0  24850-4 0  9996,2 52878  53.2162 302.5638 0001282  98.6932 261.4205 15.08827725 99517,6917.918,95.438,540.67,538.896,0.0
52878.0,STARLINK-4171,PAYLOAD,2024-04-02 23:02:51,15.08828019,0.0001282,53.2163,302.2643,97.7528,262.3609,6.1609e-05,6.92e-06,0.0,0 STARLINK-4171,1 52878U 22062BA  24093.96031703  .00000692  00000-0  61609-4 0  9992,2 52878  53.2163 302.2643 0001282  97.7528 262.3609 15.08828019100015,6917.917,95.438,540.669,538.895,0.0
52878.0,STARLINK-4171,PAYLOAD,2024-04-03 13:21:19,15.08837686,0.0001211,53.2161,299.587,84.7333,275.3797,0.00038555,5.853e-05,0.0,0 STARLINK-4171,1 52878U 22062BA  24094.55647936  .00005853  00000-0  38555-3 0  9996,2 52878  53.2161 299.5870 0001211  84.7333 275.3797 15.08837686 99610,6917.887,95.438,540.59,538.915,0.0
52878.0,STARLINK-4171,PAYLOAD,2024-04-03 19:42:52,15.08845932,0.0001145,53.2154,298.398,83.3825,276.7297,0.00052276,8.043e-05,0.0,0 STARLINK-4171,1 52878U 22062BA  24094.82143740  .00008043  00000-0  52276-3 0  9990,2 52878  53.2154 298.3980 0001145  83.3825 276.7297 15.08845932100142,6917.862,95.437,540.519,538.935,0.0
52878.0,STARLINK-4171,PAYLOAD,2024-04-04 06:50:33,15.0885641,0.0001236,53.2155,296.3167,82.3273,277.786,0.00059332,9.172e-05,0.0,0 STARLINK-4171,1 52878U 22062BA  24095.28511312  .00009172  00000-0  59332-3 0  9999,2 52878  53.2155 296.3167 0001236  82.3273 277.7860 15.08856410 99726,6917.83,95.437,540.55,538.84,0.0
52878.0,STARLINK-4171,PAYLOAD,2024-04-04 19:33:38,15.08850644,0.0001315,53.2159,293.9387,80.4588,279.6552,0.00022089,3.23e-05,0.0,0 STARLINK-4171,1 52878U 22062BA  24095.81503177  .00003230  00000-0  22089-3 0  9996,2 52878  53.2159 293.9387 0001315  80.4588 279.6552 15.08850644100290,6917.848,95.437,540.623,538.803,0.0
52878.0,STARLINK-4171,PAYLOAD,2024-04-05 13:02:52,15.08852984,0.0001961,53.2152,290.6673,80.3205,279.8009,0.00019573,2.829e-05,0.0,0 STARLINK-4171,1 52878U 22062BA  24096.54366836  .00002829  00000-0  19573-3 0  9993,2 52878  53.2152 290.6673 0001961  80.3205 279.8009 15.08852984 99911,6917.841,95.437,541.062,538.349,0.0
52878.0,STARLINK-4171,PAYLOAD,2024-04-05 19:24:25,15.08844171,0.0001312,53.2168,289.4772,90.9933,269.1209,3.3199e-05,2.41e-06,0.0,0 STARLINK-4171,1 52878U 22062BA  24096.80862974  .00000241  00000-0  33199-4 0  9993,2 52878  53.2168 289.4772 0001312  90.9933 269.1209 15.08844171100443,6917.868,95.437,540.64,538.825,0.0
52878.0,STARLINK-4171,PAYLOAD,2024-04-05 22:35:11,15.0884674,0.0001456,53.2161,288.881,93.2887,266.8271,2.0651e-05,4.1e-07,0.0,0 STARLINK-4171,1 52878U 22062BA  24096.94110756  .00000041  00000-0  20651-4 0  9999,2 52878  53.2161 288.8810 0001456  93.2887 266.8271 15.08846740 99977,6917.86,95.437,540.732,538.718,0.0
52878.0,STARLINK-4171,PAYLOAD,2024-04-06 12:53:39,15.08843027,0.0001413,53.216,286.2045,93.5615,266.5539,5.8546e-05,6.44e-06,0.0,0 STARLINK-4171,1 52878U 22062BA  24097.53726783  .00000644  00000-0  58546-4 0  9991,2 52878  53.2160 286.2045 0001413  93.5615 266.5539 15.08843027100065,6917.871,95.437,540.714,538.759,0.0
